{"fetched_at":"2026-07-14T17:40:21.416Z","source":"https://celestrak.org/NORAD/elements/gp.php?GROUP=kuiper&FORMAT=JSON","constellation":"kuiper","records":[{"OBJECT_NAME":"KUIPER-00114","OBJECT_ID":"2025-171V","EPOCH":"2026-07-13T14:26:27.009600","CLASSIFICATION_TYPE":"U","MEAN_MOTION":14.7993221,"ECCENTRICITY":0.0000561,"INCLINATION":51.9007,"RA_OF_ASC_NODE":338.8126,"ARG_OF_PERICENTER":116.0024,"MEAN_ANOMALY":244.0996,"EPHEMERIS_TYPE":0,"NORAD_CAT_ID":65151,"ELEMENT_SET_NO":999,"REV_AT_EPOCH":5128,"BSTAR":0.0002734,"MEAN_MOTION_DOT":0.00001864,"MEAN_MOTION_DDOT":0},{"OBJECT_NAME":"KUIPER-00115","OBJECT_ID":"2025-171W","EPOCH":"2026-07-13T16:15:20.684736","CLASSIFICATION_TYPE":"U","MEAN_MOTION":14.79932229,"ECCENTRICITY":0.0000508,"INCLINATION":51.9022,"RA_OF_ASC_NODE":330.9795,"ARG_OF_PERICENTER":122.0881,"MEAN_ANOMALY":238.013,"EPHEMERIS_TYPE":0,"NORAD_CAT_ID":65152,"ELEMENT_SET_NO":999,"REV_AT_EPOCH":5140,"BSTAR":0.00028543,"MEAN_MOTION_DOT":0.00001955,"MEAN_MOTION_DDOT":0},{"OBJECT_NAME":"KUIPER-00116","OBJECT_ID":"2025-171X","EPOCH":"2026-07-13T16:56:12.499008","CLASSIFICATION_TYPE":"U","MEAN_MOTION":14.79936692,"ECCENTRICITY":0.0000673,"INCLINATION":51.9034,"RA_OF_ASC_NODE":335.8886,"ARG_OF_PERICENTER":128.1168,"MEAN_ANOMALY":231.9855,"EPHEMERIS_TYPE":0,"NORAD_CAT_ID":65153,"ELEMENT_SET_NO":999,"REV_AT_EPOCH":5133,"BSTAR":-0.000019823,"MEAN_MOTION_DOT":-0.00000372,"MEAN_MOTION_DDOT":0},{"OBJECT_NAME":"KUIPER-00118","OBJECT_ID":"2025-171Y","EPOCH":"2026-07-13T18:29:30.971040","CLASSIFICATION_TYPE":"U","MEAN_MOTION":14.79922386,"ECCENTRICITY":0.000056,"INCLINATION":51.9015,"RA_OF_ASC_NODE":338.0505,"ARG_OF_PERICENTER":113.0532,"MEAN_ANOMALY":247.0489,"EPHEMERIS_TYPE":0,"NORAD_CAT_ID":65154,"ELEMENT_SET_NO":999,"REV_AT_EPOCH":5131,"BSTAR":0.000079028,"MEAN_MOTION_DOT":0.00000381,"MEAN_MOTION_DDOT":0},{"OBJECT_NAME":"KUIPER-00119","OBJECT_ID":"2025-171Z","EPOCH":"2026-07-13T13:57:15.880320","CLASSIFICATION_TYPE":"U","MEAN_MOTION":14.7993258,"ECCENTRICITY":0.0000166,"INCLINATION":51.9042,"RA_OF_ASC_NODE":326.4857,"ARG_OF_PERICENTER":158.3538,"MEAN_ANOMALY":201.7432,"EPHEMERIS_TYPE":0,"NORAD_CAT_ID":65155,"ELEMENT_SET_NO":999,"REV_AT_EPOCH":5145,"BSTAR":0.000049283,"MEAN_MOTION_DOT":0.00000155,"MEAN_MOTION_DDOT":0},{"OBJECT_NAME":"KUIPER-00120","OBJECT_ID":"2025-217A","EPOCH":"2026-07-14T08:36:13.998240","CLASSIFICATION_TYPE":"U","MEAN_MOTION":14.79932286,"ECCENTRICITY":0.0000387,"INCLINATION":51.8984,"RA_OF_ASC_NODE":212.9268,"ARG_OF_PERICENTER":72.3449,"MEAN_ANOMALY":287.7555,"EPHEMERIS_TYPE":0,"NORAD_CAT_ID":65762,"ELEMENT_SET_NO":999,"REV_AT_EPOCH":4349,"BSTAR":0.00014452,"MEAN_MOTION_DOT":0.00000881,"MEAN_MOTION_DDOT":0},{"OBJECT_NAME":"KUIPER-00132","OBJECT_ID":"2025-217B","EPOCH":"2026-07-14T11:28:07.195584","CLASSIFICATION_TYPE":"U","MEAN_MOTION":15.43338465,"ECCENTRICITY":0.0007532,"INCLINATION":51.855,"RA_OF_ASC_NODE":106.1992,"ARG_OF_PERICENTER":61.8479,"MEAN_ANOMALY":298.327,"EPHEMERIS_TYPE":0,"NORAD_CAT_ID":65763,"ELEMENT_SET_NO":999,"REV_AT_EPOCH":4498,"BSTAR":0.00048688,"MEAN_MOTION_DOT":0.00021726,"MEAN_MOTION_DDOT":0},{"OBJECT_NAME":"KUIPER-00133","OBJECT_ID":"2025-217C","EPOCH":"2026-07-14T07:47:37.879008","CLASSIFICATION_TYPE":"U","MEAN_MOTION":14.79932719,"ECCENTRICITY":0.0000443,"INCLINATION":51.9026,"RA_OF_ASC_NODE":213.1845,"ARG_OF_PERICENTER":80.0262,"MEAN_ANOMALY":280.0751,"EPHEMERIS_TYPE":0,"NORAD_CAT_ID":65764,"ELEMENT_SET_NO":999,"REV_AT_EPOCH":4349,"BSTAR":0.00017668,"MEAN_MOTION_DOT":0.00001126,"MEAN_MOTION_DDOT":0},{"OBJECT_NAME":"KUIPER-00139","OBJECT_ID":"2025-217D","EPOCH":"2026-07-14T10:15:18.985248","CLASSIFICATION_TYPE":"U","MEAN_MOTION":14.79935674,"ECCENTRICITY":0.0000655,"INCLINATION":51.8978,"RA_OF_ASC_NODE":180.1895,"ARG_OF_PERICENTER":71.9999,"MEAN_ANOMALY":288.1035,"EPHEMERIS_TYPE":0,"NORAD_CAT_ID":65765,"ELEMENT_SET_NO":999,"REV_AT_EPOCH":4396,"BSTAR":0.00019465,"MEAN_MOTION_DOT":0.00001263,"MEAN_MOTION_DDOT":0},{"OBJECT_NAME":"KUIPER-00142","OBJECT_ID":"2025-217E","EPOCH":"2026-07-14T09:03:21.865824","CLASSIFICATION_TYPE":"U","MEAN_MOTION":14.79937431,"ECCENTRICITY":0.0000449,"INCLINATION":51.8983,"RA_OF_ASC_NODE":195.3705,"ARG_OF_PERICENTER":71.2126,"MEAN_ANOMALY":288.8885,"EPHEMERIS_TYPE":0,"NORAD_CAT_ID":65766,"ELEMENT_SET_NO":999,"REV_AT_EPOCH":4374,"BSTAR":0.00019067,"MEAN_MOTION_DOT":0.00001233,"MEAN_MOTION_DDOT":0},{"OBJECT_NAME":"KUIPER-00145","OBJECT_ID":"2025-217F","EPOCH":"2026-07-14T07:22:20.460000","CLASSIFICATION_TYPE":"U","MEAN_MOTION":14.7991847,"ECCENTRICITY":0.0000552,"INCLINATION":51.8987,"RA_OF_ASC_NODE":198.2022,"ARG_OF_PERICENTER":71.2754,"MEAN_ANOMALY":288.8269,"EPHEMERIS_TYPE":0,"NORAD_CAT_ID":65767,"ELEMENT_SET_NO":999,"REV_AT_EPOCH":4369,"BSTAR":0.00018303,"MEAN_MOTION_DOT":0.00001174,"MEAN_MOTION_DDOT":0},{"OBJECT_NAME":"KUIPER-00147","OBJECT_ID":"2025-217G","EPOCH":"2026-07-14T06:29:45.632256","CLASSIFICATION_TYPE":"U","MEAN_MOTION":14.79936498,"ECCENTRICITY":0.0000469,"INCLINATION":51.898,"RA_OF_ASC_NODE":200.8445,"ARG_OF_PERICENTER":73.2279,"MEAN_ANOMALY":286.8735,"EPHEMERIS_TYPE":0,"NORAD_CAT_ID":65768,"ELEMENT_SET_NO":999,"REV_AT_EPOCH":4365,"BSTAR":0.00017774,"MEAN_MOTION_DOT":0.00001134,"MEAN_MOTION_DDOT":0},{"OBJECT_NAME":"KUIPER-00148","OBJECT_ID":"2025-217H","EPOCH":"2026-07-14T12:00:02.000160","CLASSIFICATION_TYPE":"U","MEAN_MOTION":14.7896843,"ECCENTRICITY":0.0001097,"INCLINATION":51.902,"RA_OF_ASC_NODE":182.3357,"ARG_OF_PERICENTER":91.1593,"MEAN_ANOMALY":315.0881,"EPHEMERIS_TYPE":0,"NORAD_CAT_ID":65769,"ELEMENT_SET_NO":999,"REV_AT_EPOCH":476,"BSTAR":0.008404,"MEAN_MOTION_DOT":0.00062987,"MEAN_MOTION_DDOT":0},{"OBJECT_NAME":"KUIPER-00150","OBJECT_ID":"2025-217J","EPOCH":"2026-07-14T11:05:58.945056","CLASSIFICATION_TYPE":"U","MEAN_MOTION":14.79934028,"ECCENTRICITY":0.0000356,"INCLINATION":51.8999,"RA_OF_ASC_NODE":210.0311,"ARG_OF_PERICENTER":62.2874,"MEAN_ANOMALY":297.8125,"EPHEMERIS_TYPE":0,"NORAD_CAT_ID":65770,"ELEMENT_SET_NO":999,"REV_AT_EPOCH":4354,"BSTAR":0.00018239,"MEAN_MOTION_DOT":0.0000117,"MEAN_MOTION_DDOT":0},{"OBJECT_NAME":"KUIPER-00151","OBJECT_ID":"2025-217K","EPOCH":"2026-07-14T08:03:05.857344","CLASSIFICATION_TYPE":"U","MEAN_MOTION":14.79939843,"ECCENTRICITY":0.0000386,"INCLINATION":51.9004,"RA_OF_ASC_NODE":203.0897,"ARG_OF_PERICENTER":76.4159,"MEAN_ANOMALY":283.6846,"EPHEMERIS_TYPE":0,"NORAD_CAT_ID":65771,"ELEMENT_SET_NO":999,"REV_AT_EPOCH":4363,"BSTAR":0.00017754,"MEAN_MOTION_DOT":0.00001133,"MEAN_MOTION_DDOT":0},{"OBJECT_NAME":"KUIPER-00152","OBJECT_ID":"2025-217L","EPOCH":"2026-07-14T09:11:12.444288","CLASSIFICATION_TYPE":"U","MEAN_MOTION":14.79928571,"ECCENTRICITY":0.0000663,"INCLINATION":51.8999,"RA_OF_ASC_NODE":190.3658,"ARG_OF_PERICENTER":57.435,"MEAN_ANOMALY":302.6677,"EPHEMERIS_TYPE":0,"NORAD_CAT_ID":65772,"ELEMENT_SET_NO":999,"REV_AT_EPOCH":4381,"BSTAR":0.00018434,"MEAN_MOTION_DOT":0.00001184,"MEAN_MOTION_DDOT":0}]}
