[
  {
    "name": "KUIPER-00114",
    "noradId": "65151",
    "line1": "1 65151U 25171V   26194.60170150  .00001864  00000+0  27340-3 0  9993",
    "line2": "2 65151  51.9007 338.8126 0000561 116.0024 244.0996 14.79932210 51287"
  },
  {
    "name": "KUIPER-00115",
    "noradId": "65152",
    "line1": "1 65152U 25171W   26194.67732274  .00001955  00000+0  28543-3 0  9999",
    "line2": "2 65152  51.9022 330.9795 0000508 122.0881 238.0130 14.79932229 51406"
  },
  {
    "name": "KUIPER-00116",
    "noradId": "65153",
    "line1": "1 65153U 25171X   26194.70570022 -.00000372  00000+0 -19823-4 0  9991",
    "line2": "2 65153  51.9034 335.8886 0000673 128.1168 231.9855 14.79936692 51339"
  },
  {
    "name": "KUIPER-00118",
    "noradId": "65154",
    "line1": "1 65154U 25171Y   26194.77049735  .00000381  00000+0  79028-4 0  9992",
    "line2": "2 65154  51.9015 338.0505 0000560 113.0532 247.0489 14.79922386 51319"
  },
  {
    "name": "KUIPER-00119",
    "noradId": "65155",
    "line1": "1 65155U 25171Z   26194.58143380  .00000155  00000+0  49283-4 0  9992",
    "line2": "2 65155  51.9042 326.4857 0000166 158.3538 201.7432 14.79932580 51458"
  },
  {
    "name": "KUIPER-00120",
    "noradId": "65762",
    "line1": "1 65762U 25217A   26195.35849535  .00000881  00000+0  14452-3 0  9993",
    "line2": "2 65762  51.8984 212.9268 0000387  72.3449 287.7555 14.79932286 43490"
  },
  {
    "name": "KUIPER-00132",
    "noradId": "65763",
    "line1": "1 65763U 25217B   26195.47786106  .00021726  00000+0  48688-3 0  9990",
    "line2": "2 65763  51.8550 106.1992 0007532  61.8479 298.3270 15.43338465 44981"
  },
  {
    "name": "KUIPER-00133",
    "noradId": "65764",
    "line1": "1 65764U 25217C   26195.32474397  .00001126  00000+0  17668-3 0  9997",
    "line2": "2 65764  51.9026 213.1845 0000443  80.0262 280.0751 14.79932719 43491"
  },
  {
    "name": "KUIPER-00139",
    "noradId": "65765",
    "line1": "1 65765U 25217D   26195.42730307  .00001263  00000+0  19465-3 0  9994",
    "line2": "2 65765  51.8978 180.1895 0000655  71.9999 288.1035 14.79935674 43965"
  },
  {
    "name": "KUIPER-00142",
    "noradId": "65766",
    "line1": "1 65766U 25217E   26195.37733641  .00001233  00000+0  19067-3 0  9998",
    "line2": "2 65766  51.8983 195.3705 0000449  71.2126 288.8885 14.79937431 43745"
  },
  {
    "name": "KUIPER-00145",
    "noradId": "65767",
    "line1": "1 65767U 25217F   26195.30718125  .00001174  00000+0  18303-3 0  9998",
    "line2": "2 65767  51.8987 198.2022 0000552  71.2754 288.8269 14.79918470 43698"
  },
  {
    "name": "KUIPER-00147",
    "noradId": "65768",
    "line1": "1 65768U 25217G   26195.27066704  .00001134  00000+0  17774-3 0  9991",
    "line2": "2 65768  51.8980 200.8445 0000469  73.2279 286.8735 14.79936498 43654"
  },
  {
    "name": "KUIPER-00148",
    "noradId": "65769",
    "line1": "1 65769U 25217H   26195.50002315  .00062987  00000+0  84040-2 0  9998",
    "line2": "2 65769  51.9020 182.3357 0001097  91.1593 315.0881 14.78968430  4769"
  },
  {
    "name": "KUIPER-00150",
    "noradId": "65770",
    "line1": "1 65770U 25217J   26195.46248779  .00001170  00000+0  18239-3 0  9996",
    "line2": "2 65770  51.8999 210.0311 0000356  62.2874 297.8125 14.79934028 43546"
  },
  {
    "name": "KUIPER-00151",
    "noradId": "65771",
    "line1": "1 65771U 25217K   26195.33548446  .00001133  00000+0  17754-3 0  9997",
    "line2": "2 65771  51.9004 203.0897 0000386  76.4159 283.6846 14.79939843 43635"
  },
  {
    "name": "KUIPER-00152",
    "noradId": "65772",
    "line1": "1 65772U 25217L   26195.38278292  .00001184  00000+0  18434-3 0  9994",
    "line2": "2 65772  51.8999 190.3658 0000663  57.4350 302.6677 14.79928571 43811"
  }
]